[{"OBJECT_NAME":"STARLINK-1601","OBJECT_ID":"2020-057D","EPOCH":"2026-02-18T22:00:03.999744","MEAN_MOTION":15.96874259,"ECCENTRICITY":0.0003695,"INCLINATION":53.0427,"RA_OF_ASC_NODE":351.9569,"ARG_OF_PERICENTER":99.4539,"MEAN_ANOMALY":268.1225,"EPHEMERIS_TYPE":0,"CLASSIFICATION_TYPE":"U","NORAD_CAT_ID":46120,"ELEMENT_SET_NO":999,"REV_AT_EPOCH":593,"BSTAR":0.0012966,"MEAN_MOTION_DOT":0.00568289,"MEAN_MOTION_DDOT":0.0001471},{"OBJECT_NAME":"STARLINK-1621","OBJECT_ID":"2020-057L","EPOCH":"2026-02-18T22:00:03.999744","MEAN_MOTION":15.71162828,"ECCENTRICITY":0.0006524,"INCLINATION":53.0484,"RA_OF_ASC_NODE":337.0409,"ARG_OF_PERICENTER":136.0336,"MEAN_ANOMALY":54.9534,"EPHEMERIS_TYPE":0,"CLASSIFICATION_TYPE":"U","NORAD_CAT_ID":46127,"ELEMENT_SET_NO":999,"REV_AT_EPOCH":593,"BSTAR":0.0013974,"MEAN_MOTION_DOT":0.00183474,"MEAN_MOTION_DDOT":0},{"OBJECT_NAME":"STARLINK-1622","OBJECT_ID":"2020-057M","EPOCH":"2026-02-18T22:00:03.999744","MEAN_MOTION":15.58832593,"ECCENTRICITY":0.0010122,"INCLINATION":53.027,"RA_OF_ASC_NODE":315.8658,"ARG_OF_PERICENTER":100.5061,"MEAN_ANOMALY":117.7296,"EPHEMERIS_TYPE":0,"CLASSIFICATION_TYPE":"U","NORAD_CAT_ID":46128,"ELEMENT_SET_NO":999,"REV_AT_EPOCH":550,"BSTAR":0.00090457,"MEAN_MOTION_DOT":0.00071509,"MEAN_MOTION_DDOT":0},{"OBJECT_NAME":"STARLINK-1623","OBJECT_ID":"2020-057N","EPOCH":"2026-02-18T05:33:27.775008","MEAN_MOTION":15.48344851,"ECCENTRICITY":0.0010114,"INCLINATION":53.0546,"RA_OF_ASC_NODE":349.3725,"ARG_OF_PERICENTER":89.1478,"MEAN_ANOMALY":271.0689,"EPHEMERIS_TYPE":0,"CLASSIFICATION_TYPE":"U","NORAD_CAT_ID":46129,"ELEMENT_SET_NO":999,"REV_AT_EPOCH":30390,"BSTAR":0.001659,"MEAN_MOTION_DOT":0.00089956,"MEAN_MOTION_DDOT":0},{"OBJECT_NAME":"STARLINK-1624","OBJECT_ID":"2020-057P","EPOCH":"2026-02-18T22:00:03.999744","MEAN_MOTION":15.62196877,"ECCENTRICITY":0.0001432,"INCLINATION":53.0479,"RA_OF_ASC_NODE":324.524,"ARG_OF_PERICENTER":252.3301,"MEAN_ANOMALY":284.2826,"EPHEMERIS_TYPE":0,"CLASSIFICATION_TYPE":"U","NORAD_CAT_ID":46130,"ELEMENT_SET_NO":999,"REV_AT_EPOCH":587,"BSTAR":0.0016222,"MEAN_MOTION_DOT":0.00147487,"MEAN_MOTION_DDOT":0},{"OBJECT_NAME":"STARLINK-1625","OBJECT_ID":"2020-057Q","EPOCH":"2026-02-18T22:00:03.999744","MEAN_MOTION":15.75802947,"ECCENTRICITY":0.0008146,"INCLINATION":53.052,"RA_OF_ASC_NODE":342.3056,"ARG_OF_PERICENTER":124.3309,"MEAN_ANOMALY":10.4169,"EPHEMERIS_TYPE":0,"CLASSIFICATION_TYPE":"U","NORAD_CAT_ID":46131,"ELEMENT_SET_NO":999,"REV_AT_EPOCH":584,"BSTAR":0.001488,"MEAN_MOTION_DOT":0.00240291,"MEAN_MOTION_DDOT":0},{"OBJECT_NAME":"STARLINK-1596","OBJECT_ID":"2020-057AA","EPOCH":"2026-02-18T03:01:17.988960","MEAN_MOTION":15.42430722,"ECCENTRICITY":0.00062442,"INCLINATION":53.0447,"RA_OF_ASC_NODE":323.7418,"ARG_OF_PERICENTER":97.6695,"MEAN_ANOMALY":262.5019,"EPHEMERIS_TYPE":0,"CLASSIFICATION_TYPE":"U","NORAD_CAT_ID":46141,"ELEMENT_SET_NO":999,"REV_AT_EPOCH":30425,"BSTAR":0.00058202984,"MEAN_MOTION_DOT":0.00025244,"MEAN_MOTION_DDOT":0},{"OBJECT_NAME":"STARLINK-1597","OBJECT_ID":"2020-057AB","EPOCH":"2026-02-18T05:21:51.988032","MEAN_MOTION":15.51778802,"ECCENTRICITY":0.0008359,"INCLINATION":53.0519,"RA_OF_ASC_NODE":30.7982,"ARG_OF_PERICENTER":65.3839,"MEAN_ANOMALY":294.804,"EPHEMERIS_TYPE":0,"CLASSIFICATION_TYPE":"U","NORAD_CAT_ID":46142,"ELEMENT_SET_NO":999,"REV_AT_EPOCH":30331,"BSTAR":0.0015731,"MEAN_MOTION_DOT":0.00096352,"MEAN_MOTION_DDOT":0},{"OBJECT_NAME":"STARLINK-1606","OBJECT_ID":"2020-057AD","EPOCH":"2026-02-18T22:00:03.999744","MEAN_MOTION":15.5886565,"ECCENTRICITY":0.000458,"INCLINATION":53.0486,"RA_OF_ASC_NODE":348.0807,"ARG_OF_PERICENTER":63.8723,"MEAN_ANOMALY":193.9339,"EPHEMERIS_TYPE":0,"CLASSIFICATION_TYPE":"U","NORAD_CAT_ID":46144,"ELEMENT_SET_NO":999,"REV_AT_EPOCH":586,"BSTAR":0.001189,"MEAN_MOTION_DOT":0.00094378,"MEAN_MOTION_DDOT":0},{"OBJECT_NAME":"STARLINK-1608","OBJECT_ID":"2020-057AF","EPOCH":"2026-02-18T09:00:53.865216","MEAN_MOTION":15.30192953,"ECCENTRICITY":0.0001435,"INCLINATION":53.1594,"RA_OF_ASC_NODE":39.0091,"ARG_OF_PERICENTER":104.0021,"MEAN_ANOMALY":256.1139,"EPHEMERIS_TYPE":0,"CLASSIFICATION_TYPE":"U","NORAD_CAT_ID":46146,"ELEMENT_SET_NO":999,"REV_AT_EPOCH":30322,"BSTAR":5.5278e-5,"MEAN_MOTION_DOT":1.278e-5,"MEAN_MOTION_DDOT":0},{"OBJECT_NAME":"STARLINK-1642","OBJECT_ID":"2020-057AP","EPOCH":"2026-02-18T21:47:04.619040","MEAN_MOTION":16.25957894,"ECCENTRICITY":0.0005061,"INCLINATION":53.0269,"RA_OF_ASC_NODE":324.8576,"ARG_OF_PERICENTER":201.0145,"MEAN_ANOMALY":159.0688,"EPHEMERIS_TYPE":0,"CLASSIFICATION_TYPE":"U","NORAD_CAT_ID":46154,"ELEMENT_SET_NO":999,"REV_AT_EPOCH":30430,"BSTAR":0.001193,"MEAN_MOTION_DOT":0.03874893,"MEAN_MOTION_DDOT":1.1955e-5},{"OBJECT_NAME":"STARLINK-1667","OBJECT_ID":"2020-057AQ","EPOCH":"2026-02-18T03:57:10.393632","MEAN_MOTION":15.58741024,"ECCENTRICITY":0.00101941,"INCLINATION":53.0274,"RA_OF_ASC_NODE":320.1505,"ARG_OF_PERICENTER":95.5904,"MEAN_ANOMALY":264.627,"EPHEMERIS_TYPE":0,"CLASSIFICATION_TYPE":"U","NORAD_CAT_ID":46155,"ELEMENT_SET_NO":999,"REV_AT_EPOCH":30554,"BSTAR":0.0015802306,"MEAN_MOTION_DOT":0.00125714,"MEAN_MOTION_DDOT":0},{"OBJECT_NAME":"STARLINK-1545","OBJECT_ID":"2020-057AR","EPOCH":"2026-02-18T05:58:07.254912","MEAN_MOTION":15.56995314,"ECCENTRICITY":0.0003984,"INCLINATION":53.049,"RA_OF_ASC_NODE":353.0056,"ARG_OF_PERICENTER":27.0185,"MEAN_ANOMALY":333.1032,"EPHEMERIS_TYPE":0,"CLASSIFICATION_TYPE":"U","NORAD_CAT_ID":46156,"ELEMENT_SET_NO":999,"REV_AT_EPOCH":30510,"BSTAR":0.0021191,"MEAN_MOTION_DOT":0.00158389,"MEAN_MOTION_DDOT":0},{"OBJECT_NAME":"STARLINK-1587","OBJECT_ID":"2020-057AS","EPOCH":"2026-02-18T22:00:03.999744","MEAN_MOTION":15.82852205,"ECCENTRICITY":0.0005072,"INCLINATION":53.0382,"RA_OF_ASC_NODE":311.7625,"ARG_OF_PERICENTER":127.2207,"MEAN_ANOMALY":108.0918,"EPHEMERIS_TYPE":0,"CLASSIFICATION_TYPE":"U","NORAD_CAT_ID":46157,"ELEMENT_SET_NO":999,"REV_AT_EPOCH":601,"BSTAR":0.0012958,"MEAN_MOTION_DOT":0.00289449,"MEAN_MOTION_DDOT":0},{"OBJECT_NAME":"STARLINK-1595","OBJECT_ID":"2020-057AU","EPOCH":"2026-02-18T07:26:52.944864","MEAN_MOTION":15.46239912,"ECCENTRICITY":0.000869,"INCLINATION":53.0511,"RA_OF_ASC_NODE":29.3888,"ARG_OF_PERICENTER":42.7227,"MEAN_ANOMALY":317.4454,"EPHEMERIS_TYPE":0,"CLASSIFICATION_TYPE":"U","NORAD_CAT_ID":46159,"ELEMENT_SET_NO":999,"REV_AT_EPOCH":30460,"BSTAR":0.0016654,"MEAN_MOTION_DOT":0.00083818,"MEAN_MOTION_DDOT":0},{"OBJECT_NAME":"STARLINK-1598","OBJECT_ID":"2020-057AV","EPOCH":"2026-02-18T07:18:16.301376","MEAN_MOTION":15.46997717,"ECCENTRICITY":0.001854,"INCLINATION":53.0556,"RA_OF_ASC_NODE":16.4929,"ARG_OF_PERICENTER":9.0996,"MEAN_ANOMALY":351.0343,"EPHEMERIS_TYPE":0,"CLASSIFICATION_TYPE":"U","NORAD_CAT_ID":46160,"ELEMENT_SET_NO":999,"REV_AT_EPOCH":30477,"BSTAR":5.5283e-5,"MEAN_MOTION_DOT":2.404e-5,"MEAN_MOTION_DDOT":0},{"OBJECT_NAME":"STARLINK-1612","OBJECT_ID":"2020-057AZ","EPOCH":"2026-02-18T22:00:03.999744","MEAN_MOTION":15.7392459,"ECCENTRICITY":0.0007411,"INCLINATION":53.0383,"RA_OF_ASC_NODE":305.6811,"ARG_OF_PERICENTER":136.8762,"MEAN_ANOMALY":352.4709,"EPHEMERIS_TYPE":0,"CLASSIFICATION_TYPE":"U","NORAD_CAT_ID":46164,"ELEMENT_SET_NO":999,"REV_AT_EPOCH":578,"BSTAR":0.0012582,"MEAN_MOTION_DOT":0.00185881,"MEAN_MOTION_DDOT":0},{"OBJECT_NAME":"STARLINK-1626","OBJECT_ID":"2020-057BC","EPOCH":"2026-02-18T04:16:19.116192","MEAN_MOTION":15.50041043,"ECCENTRICITY":0.0009631,"INCLINATION":53.0507,"RA_OF_ASC_NODE":28.2012,"ARG_OF_PERICENTER":54.8128,"MEAN_ANOMALY":305.3781,"EPHEMERIS_TYPE":0,"CLASSIFICATION_TYPE":"U","NORAD_CAT_ID":46167,"ELEMENT_SET_NO":999,"REV_AT_EPOCH":30335,"BSTAR":0.0016391,"MEAN_MOTION_DOT":0.00094391,"MEAN_MOTION_DDOT":0},{"OBJECT_NAME":"STARLINK-1627","OBJECT_ID":"2020-057BD","EPOCH":"2026-02-18T22:00:03.999744","MEAN_MOTION":15.66788542,"ECCENTRICITY":0.0004555,"INCLINATION":53.0465,"RA_OF_ASC_NODE":317.4803,"ARG_OF_PERICENTER":47.6596,"MEAN_ANOMALY":0.418,"EPHEMERIS_TYPE":0,"CLASSIFICATION_TYPE":"U","NORAD_CAT_ID":46168,"ELEMENT_SET_NO":999,"REV_AT_EPOCH":592,"BSTAR":0.0013355,"MEAN_MOTION_DOT":0.00145616,"MEAN_MOTION_DDOT":0},{"OBJECT_NAME":"STARLINK-1633","OBJECT_ID":"2020-057BG","EPOCH":"2026-02-18T02:48:34.135200","MEAN_MOTION":15.54358833,"ECCENTRICITY":7.713e-5,"INCLINATION":53.0484,"RA_OF_ASC_NODE":353.945,"ARG_OF_PERICENTER":0.222,"MEAN_ANOMALY":359.879,"EPHEMERIS_TYPE":0,"CLASSIFICATION_TYPE":"U","NORAD_CAT_ID":46171,"ELEMENT_SET_NO":999,"REV_AT_EPOCH":30508,"BSTAR":0.00147658,"MEAN_MOTION_DOT":0.00099204,"MEAN_MOTION_DDOT":0},{"OBJECT_NAME":"STARLINK-1635","OBJECT_ID":"2020-057BH","EPOCH":"2026-02-18T04:58:05.059200","MEAN_MOTION":15.56240015,"ECCENTRICITY":0.0003421,"INCLINATION":53.0487,"RA_OF_ASC_NODE":352.2225,"ARG_OF_PERICENTER":351.432,"MEAN_ANOMALY":8.6632,"EPHEMERIS_TYPE":0,"CLASSIFICATION_TYPE":"U","NORAD_CAT_ID":46172,"ELEMENT_SET_NO":999,"REV_AT_EPOCH":30511,"BSTAR":0.00077452,"MEAN_MOTION_DOT":0.00055243,"MEAN_MOTION_DDOT":0},{"OBJECT_NAME":"STARLINK-1640","OBJECT_ID":"2020-057BJ","EPOCH":"2026-02-18T22:00:03.999744","MEAN_MOTION":15.49590034,"ECCENTRICITY":0.0009259,"INCLINATION":53.0528,"RA_OF_ASC_NODE":29.3738,"ARG_OF_PERICENTER":66.2718,"MEAN_ANOMALY":18.8,"EPHEMERIS_TYPE":0,"CLASSIFICATION_TYPE":"U","NORAD_CAT_ID":46173,"ELEMENT_SET_NO":999,"REV_AT_EPOCH":593,"BSTAR":0.0027701,"MEAN_MOTION_DOT":0.00158567,"MEAN_MOTION_DDOT":0},{"OBJECT_NAME":"STARLINK-1641","OBJECT_ID":"2020-057BK","EPOCH":"2026-02-18T22:00:03.999744","MEAN_MOTION":15.46988124,"ECCENTRICITY":0.0001171,"INCLINATION":53.0519,"RA_OF_ASC_NODE":15.0029,"ARG_OF_PERICENTER":95.6776,"MEAN_ANOMALY":94.8253,"EPHEMERIS_TYPE":0,"CLASSIFICATION_TYPE":"U","NORAD_CAT_ID":46174,"ELEMENT_SET_NO":999,"REV_AT_EPOCH":574,"BSTAR":0.019335,"MEAN_MOTION_DOT":0.01080629,"MEAN_MOTION_DDOT":0}]
